{"type": "FeatureCollection", "features": [ {"type": "Feature", "properties": {"norad_id": 32126, "name": "FENGYUN 1C DEB", "group": "fengyun-1c-debris", "lat": 78.83550325113558, "lon": 177.1626910151372, "alt_km": 1214.6645837514643, "timestamp": "2025-12-22T04:03:39.454994+00:00", "meta": {"OBJECT_NAME": "FENGYUN 1C DEB", "OBJECT_ID": "1999-025CRU", "EPOCH": "2025-12-14T22:11:18.681792", "MEAN_MOTION": 13.56802944, "ECCENTRICITY": 0.02807648, "INCLINATION": 99.1097, "RA_OF_ASC_NODE": 224.8335, "ARG_OF_PERICENTER": 249.9124, "MEAN_ANOMALY": 107.16, "EPHEMERIS_TYPE": 0, "CLASSIFICATION_TYPE": "U", "NORAD_CAT_ID": 32126, "ELEMENT_SET_NO": 999, "REV_AT_EPOCH": 61744, "BSTAR": 0.001056147, "MEAN_MOTION_DOT": 9.24e-06, "MEAN_MOTION_DDOT": 0}, "tle": {"line1": "1 32126U 99025CRU 25348.92452178  .00000924  00000+0  10561-2 0  9998", "line2": "2 32126  99.1097 224.8335 0280764 249.9124 107.1600 13.56802944617445"}}, "geometry": {"type": "Point", "coordinates": [177.1626910151372, 78.83550325113558]}}, {"type": "Feature", "properties": {"norad_id": 32128, "name": "FENGYUN 1C DEB", "group": "fengyun-1c-debris", "lat": -35.93583946895497, "lon": -144.40935645573862, "alt_km": 645.3350765156365, "timestamp": "2025-12-22T04:03:39.455004+00:00", "meta": {"OBJECT_NAME": "FENGYUN 1C DEB", "OBJECT_ID": "1999-025CRW", "EPOCH": "2025-12-20T09:41:23.072928", "MEAN_MOTION": 13.94238762, "ECCENTRICITY": 0.03974232, "INCLINATION": 99.0297, "RA_OF_ASC_NODE": 40.4784, "ARG_OF_PERICENTER": 201.8481, "MEAN_ANOMALY": 156.5315, "EPHEMERIS_TYPE": 0, "CLASSIFICATION_TYPE": "U", "NORAD_CAT_ID": 32128, "ELEMENT_SET_NO": 999, "REV_AT_EPOCH": 63092, "BSTAR": 0.00046296594, "MEAN_MOTION_DOT": 1.138e-05, "MEAN_MOTION_DDOT": 0}, "tle": {"line1": "1 32128U 99025CRW 25354.40373927  .00001138  00000+0  46297-3 0  9998", "line2": "2 32128  99.0297  40.4784 0397423 201.8481 156.5315 13.94238762630924"}}, "geometry": {"type": "Point", "coordinates": [-144.40935645573862, -35.93583946895497]}}, {"type": "Feature", "properties": {"norad_id": 32129, "name": "FENGYUN 1C DEB", "group": "fengyun-1c-debris", "lat": -10.77130543615304, "lon": -66.81235455019075, "alt_km": 848.9222395847246, "timestamp": "2025-12-22T04:03:39.455014+00:00", "meta": {"OBJECT_NAME": "FENGYUN 1C DEB", "OBJECT_ID": "1999-025CRX", "EPOCH": "2025-12-20T21:30:21.508992", "MEAN_MOTION": 14.28569104, "ECCENTRICITY": 0.0067404, "INCLINATION": 99.0578, "RA_OF_ASC_NODE": 113.6057, "ARG_OF_PERICENTER": 10.1346, "MEAN_ANOMALY": 116.8908, "EPHEMERIS_TYPE": 0, "CLASSIFICATION_TYPE": "U", "NORAD_CAT_ID": 32129, "ELEMENT_SET_NO": 999, "REV_AT_EPOCH": 94343, "BSTAR": 0.0012789, "MEAN_MOTION_DOT": 3.241e-05, "MEAN_MOTION_DDOT": 0}, "tle": {"line1": "1 32129U 99025CRX 25354.89608228  .00003241  00000+0  12789-2 0  9992", "line2": "2 32129  99.0578 113.6057 0067404  10.1346 116.8908 14.28569104943432"}}, "geometry": {"type": "Point", "coordinates": [-66.81235455019075, -10.77130543615304]}}, {"type": "Feature", "properties": {"norad_id": 32130, "name": "FENGYUN 1C DEB", "group": "fengyun-1c-debris", "lat": 3.207317651242501, "lon": 162.51161488663456, "alt_km": 740.2774984145444, "timestamp": "2025-12-22T04:03:39.455024+00:00", "meta": {"OBJECT_NAME": "FENGYUN 1C DEB", "OBJECT_ID": "1999-025CRY", "EPOCH": "2025-12-20T06:56:40.035264", "MEAN_MOTION": 14.37566175, "ECCENTRICITY": 0.00823379, "INCLINATION": 98.9035, "RA_OF_ASC_NODE": 161.069, "ARG_OF_PERICENTER": 307.7584, "MEAN_ANOMALY": 51.6162, "EPHEMERIS_TYPE": 0, "CLASSIFICATION_TYPE": "U", "NORAD_CAT_ID": 32130, "ELEMENT_SET_NO": 999, "REV_AT_EPOCH": 96343, "BSTAR": 0.00032075565, "MEAN_MOTION_DOT": 9.51e-06, "MEAN_MOTION_DDOT": 0}, "tle": {"line1": "1 32130U 99025CRY 25354.28935226  .00000951  00000+0  32076-3 0  9995", "line2": "2 32130  98.9035 161.0690 0082337 307.7584  51.6162 14.37566175963436"}}, "geometry": {"type": "Point", "coordinates": [162.51161488663456, 3.207317651242501]}}, {"type": "Feature", "properties": {"norad_id": 32133, "name": "FENGYUN 1C DEB", "group": "fengyun-1c-debris", "lat": 73.9396484860843, "lon": -34.10867309763686, "alt_km": 798.5384259972107, "timestamp": "2025-12-22T04:03:39.455034+00:00", "meta": {"OBJECT_NAME": "FENGYUN 1C DEB", "OBJECT_ID": "1999-025CSB", "EPOCH": "2025-12-21T17:32:39.048864", "MEAN_MOTION": 14.18078219, "ECCENTRICITY": 0.0036401, "INCLINATION": 98.4317, "RA_OF_ASC_NODE": 356.4878, "ARG_OF_PERICENTER": 75.6305, "MEAN_ANOMALY": 284.8907, "EPHEMERIS_TYPE": 0, "CLASSIFICATION_TYPE": "U", "NORAD_CAT_ID": 32133, "ELEMENT_SET_NO": 999, "REV_AT_EPOCH": 95102, "BSTAR": 0.00015171, "MEAN_MOTION_DOT": 2.72e-06, "MEAN_MOTION_DDOT": 0}, "tle": {"line1": "1 32133U 99025CSB 25355.73100751  .00000272  00000+0  15171-3 0  9999", "line2": "2 32133  98.4317 356.4878 0036401  75.6305 284.8907 14.18078219951023"}}, "geometry": {"type": "Point", "coordinates": [-34.10867309763686, 73.9396484860843]}}, {"type": "Feature", "properties": {"norad_id": 32134, "name": "FENGYUN 1C DEB", "group": "fengyun-1c-debris", "lat": 45.882230343319954, "lon": -9.844244037048693, "alt_km": 999.7545294273996, "timestamp": "2025-12-22T04:03:39.455045+00:00", "meta": {"OBJECT_NAME": "FENGYUN 1C DEB", "OBJECT_ID": "1999-025CSC", "EPOCH": "2025-12-20T18:54:49.283424", "MEAN_MOTION": 14.21581722, "ECCENTRICITY": 0.02590569, "INCLINATION": 98.5942, "RA_OF_ASC_NODE": 357.7817, "ARG_OF_PERICENTER": 240.187, "MEAN_ANOMALY": 301.7101, "EPHEMERIS_TYPE": 0, "CLASSIFICATION_TYPE": "U", "NORAD_CAT_ID": 32134, "ELEMENT_SET_NO": 999, "REV_AT_EPOCH": 95261, "BSTAR": 0.00035063748, "MEAN_MOTION_DOT": 1.03e-05, "MEAN_MOTION_DDOT": 0}, "tle": {"line1": "1 32134U 99025CSC 25354.78807041  .00001030  00000+0  35064-3 0  9996", "line2": "2 32134  98.5942 357.7817 0259056 240.1870 301.7101 14.21581722952618"}}, "geometry": {"type": "Point", "coordinates": [-9.844244037048693, 45.882230343319954]}}, {"type": "Feature", "properties": {"norad_id": 32137, "name": "FENGYUN 1C DEB", "group": "fengyun-1c-debris", "lat": 48.50308080933368, "lon": 114.25442717135594, "alt_km": 527.5830313338083, "timestamp": "2025-12-22T04:03:39.455055+00:00", "meta": {"OBJECT_NAME": "FENGYUN 1C DEB", "OBJECT_ID": "1999-025CSF", "EPOCH": "2025-12-20T01:35:34.653984", "MEAN_MOTION": 14.81328806, "ECCENTRICITY": 0.01868875, "INCLINATION": 98.4422, "RA_OF_ASC_NODE": 121.704, "ARG_OF_PERICENTER": 10.6398, "MEAN_ANOMALY": 349.8682, "EPHEMERIS_TYPE": 0, "CLASSIFICATION_TYPE": "U", "NORAD_CAT_ID": 32137, "ELEMENT_SET_NO": 999, "REV_AT_EPOCH": 66839, "BSTAR": 0.00036203143, "MEAN_MOTION_DOT": 3.753e-05, "MEAN_MOTION_DDOT": 0}, "tle": {"line1": "1 32137U 99025CSF 25354.06637331  .00003753  00000+0  36203-3 0  9993", "line2": "2 32137  98.4422 121.7040 0186887  10.6398 349.8682 14.81328806668390"}}, "geometry": {"type": "Point", "coordinates": [114.25442717135594, 48.50308080933368]}}, {"type": "Feature", "properties": {"norad_id": 32143, "name": "FENGYUN 1C DEB", "group": "fengyun-1c-debris", "lat": 5.96684600093016, "lon": -28.101519291304676, "alt_km": 814.631465546534, "timestamp": "2025-12-22T04:03:39.455066+00:00", "meta": {"OBJECT_NAME": "FENGYUN 1C DEB", "OBJECT_ID": "1999-025CSM", "EPOCH": "2025-12-17T03:47:36.858336", "MEAN_MOTION": 14.17974045, "ECCENTRICITY": 0.01045676, "INCLINATION": 98.5967, "RA_OF_ASC_NODE": 327.9519, "ARG_OF_PERICENTER": 96.0348, "MEAN_ANOMALY": 265.2755, "EPHEMERIS_TYPE": 0, "CLASSIFICATION_TYPE": "U", "NORAD_CAT_ID": 32143, "ELEMENT_SET_NO": 999, "REV_AT_EPOCH": 95996, "BSTAR": 0.000152935, "MEAN_MOTION_DOT": 2.89e-06, "MEAN_MOTION_DDOT": 0}, "tle": {"line1": "1 32143U 99025CSM 25351.15806549  .00000289  00000+0  15294-3 0  9994", "line2": "2 32143  98.5967 327.9519 0104567  96.0348 265.2755 14.17974045959960"}}, "geometry": {"type": "Point", "coordinates": [-28.101519291304676, 5.96684600093016]}}, {"type": "Feature", "properties": {"norad_id": 32150, "name": "FENGYUN 1C DEB", "group": "fengyun-1c-debris", "lat": -28.102992649348323, "lon": -164.91231997499827, "alt_km": 815.9846724438603, "timestamp": "2025-12-22T04:03:39.455076+00:00", "meta": {"OBJECT_NAME": "FENGYUN 1C DEB", "OBJECT_ID": "1999-025CSU", "EPOCH": "2025-12-17T19:32:44.216160", "MEAN_MOTION": 14.60679601, "ECCENTRICITY": 0.01717549, "INCLINATION": 99.1924, "RA_OF_ASC_NODE": 15.2172, "ARG_OF_PERICENTER": 52.3233, "MEAN_ANOMALY": 309.3402, "EPHEMERIS_TYPE": 0, "CLASSIFICATION_TYPE": "U", "NORAD_CAT_ID": 32150, "ELEMENT_SET_NO": 999, "REV_AT_EPOCH": 97780, "BSTAR": 0.00013273529, "MEAN_MOTION_DOT": 7.28e-06, "MEAN_MOTION_DDOT": 0}, "tle": {"line1": "1 32150U 99025CSU 25351.81440065  .00000728  00000+0  13274-3 0  9996", "line2": "2 32150  99.1924  15.2172 0171754  52.3233 309.3402 14.60679601977800"}}, "geometry": {"type": "Point", "coordinates": [-164.91231997499827, -28.102992649348323]}}, {"type": "Feature", "properties": {"norad_id": 32152, "name": "FENGYUN 1C DEB", "group": "fengyun-1c-debris", "lat": -80.58912358379968, "lon": -90.70197836090092, "alt_km": 713.104300638006, "timestamp": "2025-12-22T04:03:39.455086+00:00", "meta": {"OBJECT_NAME": "FENGYUN 1C DEB", "OBJECT_ID": "1999-025CSW", "EPOCH": "2025-12-17T04:09:42.037344", "MEAN_MOTION": 14.5680707, "ECCENTRICITY": 0.00551751, "INCLINATION": 98.7605, "RA_OF_ASC_NODE": 152.5422, "ARG_OF_PERICENTER": 187.8049, "MEAN_ANOMALY": 172.2295, "EPHEMERIS_TYPE": 0, "CLASSIFICATION_TYPE": "U", "NORAD_CAT_ID": 32152, "ELEMENT_SET_NO": 999, "REV_AT_EPOCH": 62677, "BSTAR": 0.0015230894, "MEAN_MOTION_DOT": 6.914e-05, "MEAN_MOTION_DDOT": 0}, "tle": {"line1": "1 32152U 99025CSW 25351.17340321  .00006914  00000+0  15231-2 0  9998", "line2": "2 32152  98.7605 152.5422 0055175 187.8049 172.2295 14.56807070626775"}}, "geometry": {"type": "Point", "coordinates": [-90.70197836090092, -80.58912358379968]}}]}